0 ASIASAT 7
1 37933U 11069A   13282.72791523 -.00000137  00000-0  00000+0 0  5025
2 37933 000.0081 138.1459 0001297 056.2605 164.7596 01.00271622  7006
0 ASIASAT 7
1 37933U 11069A   13283.85339757 -.00000141  00000-0  00000+0 0  5033
2 37933 000.0098 129.7468 0001341 063.3179 212.3846 01.00271584  7022
0 ASIASAT 7
1 37933U 11069A   13285.79525715 -.00000146  00000-0  00000+0 0  5045
2 37933 000.0136 125.0389 0001339 070.7089 190.6824 01.00271487  7043
0 ASIASAT 7
1 37933U 11069A   13286.57459325 -.00000147  00000-0  00000+0 0  5057
2 37933 000.0035 033.6467 0001363 162.5698 111.5433 01.00271579  7045
0 ASIASAT 7
1 37933U 11069A   13287.84476406 -.00000148  00000-0  00000+0 0  5069
2 37933 000.0052 033.6044 0001352 163.2221 209.4452 01.00271508  7065
0 ASIASAT 7
1 37933U 11069A   13288.85279924 -.00000147  00000-0  00000+0 0  5077
2 37933 000.0065 034.9663 0001330 162.7223 212.4684 01.00271467  7078
0 ASIASAT 7
1 37933U 11069A   13290.88589811 -.00000143  00000-0  00000+0 0  5089
2 37933 000.0048 170.7847 0001341 023.0643 230.2286 01.00271456  7095
0 ASIASAT 7
1 37933U 11069A   13293.88562608 -.00000138  00000-0  00000+0 0  5092
2 37933 000.0361 239.4480 0001759 348.5670 198.9257 01.00272284  7129
0 ASIASAT 7
1 37933U 11069A   13295.82279794 -.00000135  00000-0  00000+0 0  5108
2 37933 000.0309 239.0595 0001851 350.0430 177.1327 01.00272288  7142
